[{"OBJECT_NAME":"NEOSSAT","OBJECT_ID":"2013-009D","EPOCH":"2026-03-09T11:41:06.061344","MEAN_MOTION":14.35785569,"ECCENTRICITY":0.00110325,"INCLINATION":98.4141,"RA_OF_ASC_NODE":250.8974,"ARG_OF_PERICENTER":177.9575,"MEAN_ANOMALY":182.1658,"EPHEMERIS_TYPE":0,"CLASSIFICATION_TYPE":"U","NORAD_CAT_ID":39089,"ELEMENT_SET_NO":999,"REV_AT_EPOCH":68243,"BSTAR":0.00010834728,"MEAN_MOTION_DOT":2.71e-6,"MEAN_MOTION_DDOT":0},{"OBJECT_NAME":"IRIDIUM 133","OBJECT_ID":"2017-061A","EPOCH":"2026-03-09T23:02:46.694688","MEAN_MOTION":14.34217647,"ECCENTRICITY":0.0002155,"INCLINATION":86.3917,"RA_OF_ASC_NODE":66.7467,"ARG_OF_PERICENTER":89.8241,"MEAN_ANOMALY":270.3201,"EPHEMERIS_TYPE":0,"CLASSIFICATION_TYPE":"U","NORAD_CAT_ID":42955,"ELEMENT_SET_NO":999,"REV_AT_EPOCH":44055,"BSTAR":5.149012e-6,"MEAN_MOTION_DOT":3.4e-7,"MEAN_MOTION_DDOT":0}]
